{
  "norad_id": 63436,
  "name": "STARLINK-33638",
  "history": [
    {
      "epoch": "2026-03-28T21:35:48.420672Z",
      "apogee_km": 476.99393902992415,
      "perigee_km": 473.3081036662825,
      "latitude_deg": -4.6720092831964195e-05,
      "longitude_deg": -96.85807191551417,
      "height_km": 476.1339423978248,
      "semi_major_axis_km": 6853.288021348103,
      "eccentricity": 0.00026891,
      "inclination_deg": 53.1615,
      "raan_deg": 53.4074,
      "arg_perigee_deg": 92.698,
      "mean_anomaly_deg": 267.4328,
      "mean_motion_rev_day": 15.30221451
    },
    {
      "epoch": "2026-03-29T03:52:01.102368Z",
      "apogee_km": 476.02139691200955,
      "perigee_km": 474.40674739941005,
      "latitude_deg": 2.2083238731763357e-05,
      "longitude_deg": 167.61823145859304,
      "height_km": 476.1027461411054,
      "semi_major_axis_km": 6853.3510721557095,
      "eccentricity": 0.0001178,
      "inclination_deg": 53.1622,
      "raan_deg": 52.194,
      "arg_perigee_deg": 89.3073,
      "mean_anomaly_deg": 270.8063,
      "mean_motion_rev_day": 15.30200334
    },
    {
      "epoch": "2026-03-30T03:22:48.818784Z",
      "apogee_km": 476.13071200680497,
      "perigee_km": 474.26564537127615,
      "latitude_deg": 1.24860606284802e-05,
      "longitude_deg": 169.40365144637875,
      "height_km": 475.78853597569343,
      "semi_major_axis_km": 6853.335178689041,
      "eccentricity": 0.00013607,
      "inclination_deg": 53.1616,
      "raan_deg": 47.6439,
      "arg_perigee_deg": 70.7221,
      "mean_anomaly_deg": 289.3927,
      "mean_motion_rev_day": 15.30205657
    }
  ]
}